STARLINK-1809
1 16708C 20073AQ  21326.13351262  .00065018  00000-0  11004-2 0  3266
2 16708  53.0559  47.8908 0003182  32.7883 205.7072 15.50887595    12
